*******************************************************************************
Ephemeris / WWW_USER Tue Mar 11 05:32:46 2025 Pasadena, USA      / Horizons    
*******************************************************************************
Target body name: (2018 WV1)                      {source: JPL#17}
Center body name: Earth (399)                     {source: DE441}
Center-site name: Gemini South Obs., Cerro Pachon
*******************************************************************************
Start time      : A.D. 2018-Sep-27 22:50:00.0000 UT      
Stop  time      : A.D. 2018-Sep-28 10:16:00.0000 UT      
Step-size       : 1 minutes
*******************************************************************************
Target pole/equ : undefined
Target radii    : undefined                                                    
Center geodetic : 289.2634, -30.2406227, 2.71233  {E-lon(deg),Lat(deg),Alt(km)}
Center cylindric: 289.2634,5517.21435,-3194.81213 {E-lon(deg),Dxy(km),Dz(km)}
Center pole/equ : ITRF93                          {East-longitude positive}
Center radii    : 6378.137, 6378.137, 6356.752 km {Equator_a, b, pole_c}       
Target primary  : Sun
Vis. interferer : MOON (R_eq= 1737.400) km        {source: DE441}
Rel. light bend : Sun                             {source: DE441}
Rel. lght bnd GM: 1.3271E+11 km^3/s^2                                          
Small-body perts: Yes                             {source: SB441-N16}
Atmos refraction: NO (AIRLESS)
RA format       : HMS
Time format     : CAL 
Calendar mode   : Mixed Julian/Gregorian
RTS-only print  : NO       
EOP file        : eop.250310.p250606                                           
EOP coverage    : DATA-BASED 1962-JAN-20 TO 2025-MAR-10. PREDICTS-> 2025-JUN-05
Units conversion: 1 au= 149597870.700 km, c= 299792.458 km/s, 1 day= 86400.0 s 
Table cut-offs 1: Elevation (-90.0deg=NO ),Airmass (>38.000=NO), Daylight (YES)
Table cut-offs 2: Solar elongation (  0.0,180.0=NO ),Local Hour Angle( 0.0=NO )
Table cut-offs 3: RA/DEC angular rate (     0.0=NO )                           
*******************************************************************************
Initial IAU76/J2000 heliocentric ecliptic osculating elements (au, days, deg.):
  EPOCH=  2458458.5 ! 2018-Dec-06.00 (TDB)         Residual RMS= .12928        
   EC= .06869100257422787  QR= .9715505345748198   TP= 2458416.866413563       
   OM= 248.5061090469913   W=  141.3742304527303   IN= 1.905403987972275       
  Equivalent ICRF heliocentric cartesian coordinates (au, au/d):
   X= 2.787163119783287E-01  Y= 8.719775267121872E-01  Z= 3.748421051204766E-01
  VX=-1.676682657337402E-02 VY= 5.516972965834891E-03 VZ= 1.749720915605096E-03
Asteroid physical parameters (km, seconds, rotational period in hours):        
   GM= n.a.                RAD= n.a.               ROTPER= n.a.                
   H= 30.3                 G= .150                 B-V= n.a.                   
                           ALBEDO= n.a.            STYP= n.a.                  
*******************************************************************************
 Date__(UT)__HR:MN     R.A._________(ICRF)_________DEC
******************************************************
$$SOE
 2018-Sep-28 07:02  m  01 52 45.558150 +18 23 49.98179
 2018-Sep-28 07:03  m  01 52 45.554620 +18 23 50.34820
 2018-Sep-28 07:04  m  01 52 45.551116 +18 23 50.71410
 2018-Sep-28 07:05  m  01 52 45.547636 +18 23 51.07950
 2018-Sep-28 07:06  m  01 52 45.544183 +18 23 51.44440
 2018-Sep-28 07:07  m  01 52 45.540755 +18 23 51.80879
 2018-Sep-28 07:08  m  01 52 45.537355 +18 23 52.17268
 2018-Sep-28 07:09  m  01 52 45.533981 +18 23 52.53606
 2018-Sep-28 07:10  m  01 52 45.530635 +18 23 52.89895
 2018-Sep-28 07:11  m  01 52 45.527317 +18 23 53.26134
 2018-Sep-28 07:12  m  01 52 45.524028 +18 23 53.62322
 2018-Sep-28 07:13  m  01 52 45.520768 +18 23 53.98461
 2018-Sep-28 07:14  m  01 52 45.517537 +18 23 54.34549
 2018-Sep-28 07:15  m  01 52 45.514337 +18 23 54.70588
 2018-Sep-28 07:16  m  01 52 45.511167 +18 23 55.06577
 2018-Sep-28 07:17  m  01 52 45.508028 +18 23 55.42516
 2018-Sep-28 07:18  m  01 52 45.504920 +18 23 55.78405
 2018-Sep-28 07:19  m  01 52 45.501845 +18 23 56.14245
 2018-Sep-28 07:20  m  01 52 45.498802 +18 23 56.50036
 2018-Sep-28 07:21  m  01 52 45.495791 +18 23 56.85777
 2018-Sep-28 07:22  m  01 52 45.492815 +18 23 57.21468
 2018-Sep-28 07:23  m  01 52 45.489872 +18 23 57.57110
 2018-Sep-28 07:24  m  01 52 45.486963 +18 23 57.92703
 2018-Sep-28 07:25  m  01 52 45.484090 +18 23 58.28247
 2018-Sep-28 07:26  m  01 52 45.481251 +18 23 58.63741
 2018-Sep-28 07:27  m  01 52 45.478449 +18 23 58.99187
 2018-Sep-28 07:28  m  01 52 45.475682 +18 23 59.34583
 2018-Sep-28 07:29  m  01 52 45.472953 +18 23 59.69931
 2018-Sep-28 07:30  m  01 52 45.470260 +18 24 00.05229
 2018-Sep-28 07:31  m  01 52 45.467605 +18 24 00.40479
 2018-Sep-28 07:32  m  01 52 45.464989 +18 24 00.75680
 2018-Sep-28 07:33  m  01 52 45.462410 +18 24 01.10833
 2018-Sep-28 07:34  m  01 52 45.459871 +18 24 01.45937
 2018-Sep-28 07:35  m  01 52 45.457372 +18 24 01.80993
 2018-Sep-28 07:36  m  01 52 45.454912 +18 24 02.16000
 2018-Sep-28 07:37  m  01 52 45.452493 +18 24 02.50959
 2018-Sep-28 07:38  m  01 52 45.450115 +18 24 02.85870
 2018-Sep-28 07:39  m  01 52 45.447778 +18 24 03.20732
 2018-Sep-28 07:40  m  01 52 45.445483 +18 24 03.55547
 2018-Sep-28 07:41  m  01 52 45.443231 +18 24 03.90313
 2018-Sep-28 07:42  m  01 52 45.441021 +18 24 04.25032
 2018-Sep-28 07:43  m  01 52 45.438854 +18 24 04.59703
 2018-Sep-28 07:44  m  01 52 45.436732 +18 24 04.94326
 2018-Sep-28 07:45  m  01 52 45.434653 +18 24 05.28902
 2018-Sep-28 07:46  m  01 52 45.432619 +18 24 05.63430
 2018-Sep-28 07:47  m  01 52 45.430630 +18 24 05.97911
 2018-Sep-28 07:48  m  01 52 45.428686 +18 24 06.32344
 2018-Sep-28 07:49  m  01 52 45.426789 +18 24 06.66730
 2018-Sep-28 07:50  m  01 52 45.424938 +18 24 07.01069
 2018-Sep-28 07:51  m  01 52 45.423133 +18 24 07.35361
 2018-Sep-28 07:52  m  01 52 45.421376 +18 24 07.69606
 2018-Sep-28 07:53  m  01 52 45.419667 +18 24 08.03804
 2018-Sep-28 07:54  m  01 52 45.418006 +18 24 08.37955
 2018-Sep-28 07:55  m  01 52 45.416394 +18 24 08.72059
 2018-Sep-28 07:56  m  01 52 45.414831 +18 24 09.06117
 2018-Sep-28 07:57  m  01 52 45.413318 +18 24 09.40129
 2018-Sep-28 07:58  m  01 52 45.411855 +18 24 09.74094
 2018-Sep-28 07:59  m  01 52 45.410442 +18 24 10.08012
 2018-Sep-28 08:00  m  01 52 45.409080 +18 24 10.41885
 2018-Sep-28 08:01  m  01 52 45.407769 +18 24 10.75712
 2018-Sep-28 08:02  m  01 52 45.406510 +18 24 11.09492
 2018-Sep-28 08:03  m  01 52 45.405304 +18 24 11.43227
 2018-Sep-28 08:04  m  01 52 45.404150 +18 24 11.76916
 2018-Sep-28 08:05  m  01 52 45.403049 +18 24 12.10559
 2018-Sep-28 08:06  m  01 52 45.402002 +18 24 12.44157
 2018-Sep-28 08:07  m  01 52 45.401009 +18 24 12.77709
 2018-Sep-28 08:08  m  01 52 45.400071 +18 24 13.11216
 2018-Sep-28 08:09  m  01 52 45.399187 +18 24 13.44677
 2018-Sep-28 08:10  m  01 52 45.398359 +18 24 13.78094
 2018-Sep-28 08:11  m  01 52 45.397586 +18 24 14.11465
 2018-Sep-28 08:12  m  01 52 45.396870 +18 24 14.44792
 2018-Sep-28 08:13  m  01 52 45.396210 +18 24 14.78074
 2018-Sep-28 08:14  m  01 52 45.395607 +18 24 15.11311
 2018-Sep-28 08:15  m  01 52 45.395062 +18 24 15.44504
 2018-Sep-28 08:16  m  01 52 45.394575 +18 24 15.77652
 2018-Sep-28 08:17  m  01 52 45.394146 +18 24 16.10756
 2018-Sep-28 08:18  m  01 52 45.393775 +18 24 16.43816
 2018-Sep-28 08:19  m  01 52 45.393464 +18 24 16.76831
 2018-Sep-28 08:20  m  01 52 45.393213 +18 24 17.09803
 2018-Sep-28 08:21  m  01 52 45.393021 +18 24 17.42731
 2018-Sep-28 08:22  m  01 52 45.392891 +18 24 17.75615
 2018-Sep-28 08:23  m  01 52 45.392820 +18 24 18.08455
 2018-Sep-28 08:24  m  01 52 45.392812 +18 24 18.41252
 2018-Sep-28 08:25  m  01 52 45.392865 +18 24 18.74006
 2018-Sep-28 08:26  m  01 52 45.392980 +18 24 19.06716
 2018-Sep-28 08:27  m  01 52 45.393158 +18 24 19.39384
 2018-Sep-28 08:28  m  01 52 45.393398 +18 24 19.72008
 2018-Sep-28 08:29  m  01 52 45.393702 +18 24 20.04589
 2018-Sep-28 08:30  m  01 52 45.394070 +18 24 20.37128
 2018-Sep-28 08:31  m  01 52 45.394502 +18 24 20.69624
 2018-Sep-28 08:32  m  01 52 45.394999 +18 24 21.02078
 2018-Sep-28 08:33  m  01 52 45.395560 +18 24 21.34489
 2018-Sep-28 08:34  m  01 52 45.396187 +18 24 21.66858
 2018-Sep-28 08:35  m  01 52 45.396880 +18 24 21.99185
 2018-Sep-28 08:36  m  01 52 45.397639 +18 24 22.31470
 2018-Sep-28 08:37  m  01 52 45.398465 +18 24 22.63713
 2018-Sep-28 08:38  m  01 52 45.399358 +18 24 22.95915
 2018-Sep-28 08:39  m  01 52 45.400318 +18 24 23.28075
 2018-Sep-28 08:40  m  01 52 45.401346 +18 24 23.60194
 2018-Sep-28 08:41  m  01 52 45.402443 +18 24 23.92271
 2018-Sep-28 08:42  m  01 52 45.403608 +18 24 24.24307
 2018-Sep-28 08:43  m  01 52 45.404842 +18 24 24.56302
 2018-Sep-28 08:44  m  01 52 45.406145 +18 24 24.88257
 2018-Sep-28 08:45  m  01 52 45.407518 +18 24 25.20170
 2018-Sep-28 08:46  m  01 52 45.408962 +18 24 25.52043
 2018-Sep-28 08:47  m  01 52 45.410476 +18 24 25.83876
 2018-Sep-28 08:48  m  01 52 45.412061 +18 24 26.15668
 2018-Sep-28 08:49  m  01 52 45.413717 +18 24 26.47420
 2018-Sep-28 08:50  m  01 52 45.415445 +18 24 26.79132
 2018-Sep-28 08:51  m  01 52 45.417246 +18 24 27.10804
 2018-Sep-28 08:52  m  01 52 45.419119 +18 24 27.42437
 2018-Sep-28 08:53  m  01 52 45.421064 +18 24 27.74030
 2018-Sep-28 08:54  m  01 52 45.423084 +18 24 28.05583
 2018-Sep-28 08:55  m  01 52 45.425176 +18 24 28.37097
 2018-Sep-28 08:56  m  01 52 45.427343 +18 24 28.68573
 2018-Sep-28 08:57  m  01 52 45.429584 +18 24 29.00009
 2018-Sep-28 08:58  m  01 52 45.431900 +18 24 29.31406
 2018-Sep-28 08:59  m  01 52 45.434291 +18 24 29.62764
 2018-Sep-28 09:00  m  01 52 45.436758 +18 24 29.94084
 2018-Sep-28 09:01  m  01 52 45.439301 +18 24 30.25366
 2018-Sep-28 09:02  m  01 52 45.441920 +18 24 30.56609
 2018-Sep-28 09:03  m  01 52 45.444615 +18 24 30.87814
 2018-Sep-28 09:04  m  01 52 45.447388 +18 24 31.18982
